BEIDOU-2 IGSO-5 (C10)   
1 37948U 11073A   24169.18556265 -.00000191  00000+0  00000+0 0  9993
2 37948  49.0118 280.5101 0100549 220.1682 285.4567  1.00294088 45810
BEIDOU-2 G5 (C05)       
1 38091U 12008A   24169.73928473  .00000078  00000+0  00000+0 0  9990
2 38091   2.0771  70.8877 0005483 273.1947 247.1700  1.00271323 45054
BEIDOU-2 M3 (C11)       
1 38250U 12018A   24168.93278325 -.00000083  00000+0  00000+0 0  9990
2 38250  56.3392 329.3501 0020895 262.3912  97.3680  1.86231389 82341
BEIDOU-2 M4 (C12)       
1 38251U 12018B   24168.86298496 -.00000083  00000+0  00000+0 0  9994
2 38251  56.2462 328.6241 0011771 263.8977  95.9644  1.86232113 82342
BEIDOU-2 M6 (C14)       
1 38775U 12050B   24169.10944008 -.00000046  00000+0  00000+0 0  9995
2 38775  55.9127  87.1656 0013954 339.8132  20.1265  1.86231225 79715
BEIDOU-2 G6 (C02)       
1 38953U 12059A   24170.10952413 -.00000155  00000+0  00000+0 0  9994
2 38953   2.5619  80.5049 0009891 318.0074 351.8277  1.00272741 42732
GSAT0103 (PRN E19)      
1 38857U 12055A   24168.58925288  .00000034  00000+0  00000+0 0  9997
2 38857  55.4071 121.6221 0005339 281.6177  78.2834  1.70473690 72550
LUCH-5A                 
1 37951U 11074B   24170.05523595 -.00000031  00000+0  00000+0 0  9999
2 37951   6.8871  84.9646 0004257   8.5945 359.9777  1.00272703 45887
SES-5                   
1 38652U 12036A   24169.87341056  .00000056  00000+0  00000+0 0  9991
2 38652   0.0499 306.1310 0002093 137.2246 142.6620  1.00271090 37170
GSAT-10                 
1 38779U 12051B   24169.86473074 -.00000143  00000+0  00000+0 0  9991
2 38779   0.0427 149.4336 0000863 230.2545 281.2249  1.00273067 42793
LUCH-5B                 
1 38977U 12061A   24169.43816556 -.00000122  00000+0  00000+0 0  9998
2 38977   8.8888  56.7071 0003995  86.0428 264.8607  1.00271791 42283
IRNSS-1A                
1 39199U 13034A   24169.89934397  .00000071  00000+0  00000+0 0  9992
2 39199  34.0793  74.4417 0017661 181.2550  29.6059  1.00272577 40331
COSMOS 2475 (743)       
1 37869U 11064C   24169.81160308 -.00000018  00000+0  00000+0 0  9992
2 37869  64.9005  97.6581 0025122 255.3886 294.5546  2.13102019 98229
COSMOS 2485 (747)       
1 39155U 13019A   24169.21450022 -.00000017  00000+0  00000+0 0  9992
2 39155  65.0439  98.1754 0023056 235.4931 124.2812  2.13101920 86721
GPS BIIF-3  (PRN 24)    
1 38833U 12053A   24169.89753451  .00000108  00000+0  00000+0 0  9997
2 38833  53.5176 173.4399 0151802  55.7756 305.6883  2.00558738 84814
GPS BIIF-4  (PRN 27)    
1 39166U 13023A   24169.76047390 -.00000067  00000+0  00000+0 0  9994
2 39166  55.1127 298.5589 0123883  44.8945 316.0940  2.00562896 81250
GPS BIIF-5  (PRN 30)    
1 39533U 14008A   24169.26277864  .00000110  00000+0  00000+0 0  9990
2 39533  53.6003 179.0634 0073208 220.6685 138.8263  2.00568571 75042
