[{"OBJECT_NAME":"COSMOS 2475 (743)","OBJECT_ID":"2011-064C","EPOCH":"2024-06-17T19:28:42.506112","MEAN_MOTION":2.13102019,"ECCENTRICITY":0.0025122,"INCLINATION":64.9005,"RA_OF_ASC_NODE":97.6581,"ARG_OF_PERICENTER":255.3886,"MEAN_ANOMALY":294.5546,"EPHEMERIS_TYPE":0,"CLASSIFICATION_TYPE":"U","NORAD_CAT_ID":37869,"ELEMENT_SET_NO":999,"REV_AT_EPOCH":9822,"BSTAR":0,"MEAN_MOTION_DOT":-1.8e-7,"MEAN_MOTION_DDOT":0},{"OBJECT_NAME":"BEIDOU-2 IGSO-5 (C10)","OBJECT_ID":"2011-073A","EPOCH":"2024-06-17T04:27:12.612960","MEAN_MOTION":1.00294088,"ECCENTRICITY":0.0100549,"INCLINATION":49.0118,"RA_OF_ASC_NODE":280.5101,"ARG_OF_PERICENTER":220.1682,"MEAN_ANOMALY":285.4567,"EPHEMERIS_TYPE":0,"CLASSIFICATION_TYPE":"U","NORAD_CAT_ID":37948,"ELEMENT_SET_NO":999,"REV_AT_EPOCH":4581,"BSTAR":0,"MEAN_MOTION_DOT":-1.91e-6,"MEAN_MOTION_DDOT":0},{"OBJECT_NAME":"LUCH 5A (SDCM\/PRN 140)","OBJECT_ID":"2011-074B","EPOCH":"2024-06-18T01:19:32.386080","MEAN_MOTION":1.00272703,"ECCENTRICITY":0.0004257,"INCLINATION":6.8871,"RA_OF_ASC_NODE":84.9646,"ARG_OF_PERICENTER":8.5945,"MEAN_ANOMALY":359.9777,"EPHEMERIS_TYPE":0,"CLASSIFICATION_TYPE":"U","NORAD_CAT_ID":37951,"ELEMENT_SET_NO":999,"REV_AT_EPOCH":4588,"BSTAR":0,"MEAN_MOTION_DOT":-3.1e-7,"MEAN_MOTION_DDOT":0},{"OBJECT_NAME":"BEIDOU-2 G5 (C05)","OBJECT_ID":"2012-008A","EPOCH":"2024-06-17T17:44:34.200672","MEAN_MOTION":1.00271323,"ECCENTRICITY":0.0005483,"INCLINATION":2.0771,"RA_OF_ASC_NODE":70.8877,"ARG_OF_PERICENTER":273.1947,"MEAN_ANOMALY":247.17,"EPHEMERIS_TYPE":0,"CLASSIFICATION_TYPE":"U","NORAD_CAT_ID":38091,"ELEMENT_SET_NO":999,"REV_AT_EPOCH":4505,"BSTAR":0,"MEAN_MOTION_DOT":7.8e-7,"MEAN_MOTION_DDOT":0},{"OBJECT_NAME":"BEIDOU-2 M3 (C11)","OBJECT_ID":"2012-018A","EPOCH":"2024-06-16T22:23:12.472800","MEAN_MOTION":1.86231389,"ECCENTRICITY":0.0020895,"INCLINATION":56.3392,"RA_OF_ASC_NODE":329.3501,"ARG_OF_PERICENTER":262.3912,"MEAN_ANOMALY":97.368,"EPHEMERIS_TYPE":0,"CLASSIFICATION_TYPE":"U","NORAD_CAT_ID":38250,"ELEMENT_SET_NO":999,"REV_AT_EPOCH":8234,"BSTAR":0,"MEAN_MOTION_DOT":-8.3e-7,"MEAN_MOTION_DDOT":0},{"OBJECT_NAME":"BEIDOU-2 M4 (C12)","OBJECT_ID":"2012-018B","EPOCH":"2024-06-16T20:42:41.900544","MEAN_MOTION":1.86232113,"ECCENTRICITY":0.0011771,"INCLINATION":56.2462,"RA_OF_ASC_NODE":328.6241,"ARG_OF_PERICENTER":263.8977,"MEAN_ANOMALY":95.9644,"EPHEMERIS_TYPE":0,"CLASSIFICATION_TYPE":"U","NORAD_CAT_ID":38251,"ELEMENT_SET_NO":999,"REV_AT_EPOCH":8234,"BSTAR":0,"MEAN_MOTION_DOT":-8.3e-7,"MEAN_MOTION_DDOT":0},{"OBJECT_NAME":"SES-5 (EGNOS\/PRN 136)","OBJECT_ID":"2012-036A","EPOCH":"2024-06-17T20:57:42.672384","MEAN_MOTION":1.0027109,"ECCENTRICITY":0.0002093,"INCLINATION":0.0499,"RA_OF_ASC_NODE":306.131,"ARG_OF_PERICENTER":137.2246,"MEAN_ANOMALY":142.662,"EPHEMERIS_TYPE":0,"CLASSIFICATION_TYPE":"U","NORAD_CAT_ID":38652,"ELEMENT_SET_NO":999,"REV_AT_EPOCH":3717,"BSTAR":0,"MEAN_MOTION_DOT":5.6e-7,"MEAN_MOTION_DDOT":0},{"OBJECT_NAME":"BEIDOU-2 M6 (C14)","OBJECT_ID":"2012-050B","EPOCH":"2024-06-17T02:37:35.622912","MEAN_MOTION":1.86231225,"ECCENTRICITY":0.0013954,"INCLINATION":55.9127,"RA_OF_ASC_NODE":87.1656,"ARG_OF_PERICENTER":339.8132,"MEAN_ANOMALY":20.1265,"EPHEMERIS_TYPE":0,"CLASSIFICATION_TYPE":"U","NORAD_CAT_ID":38775,"ELEMENT_SET_NO":999,"REV_AT_EPOCH":7971,"BSTAR":0,"MEAN_MOTION_DOT":-4.6e-7,"MEAN_MOTION_DDOT":0},{"OBJECT_NAME":"GSAT-10 (GAGAN\/PRN 128)","OBJECT_ID":"2012-051B","EPOCH":"2024-06-17T20:45:12.735936","MEAN_MOTION":1.00273067,"ECCENTRICITY":8.63e-5,"INCLINATION":0.0427,"RA_OF_ASC_NODE":149.4336,"ARG_OF_PERICENTER":230.2545,"MEAN_ANOMALY":281.2249,"EPHEMERIS_TYPE":0,"CLASSIFICATION_TYPE":"U","NORAD_CAT_ID":38779,"ELEMENT_SET_NO":999,"REV_AT_EPOCH":4279,"BSTAR":0,"MEAN_MOTION_DOT":-1.43e-6,"MEAN_MOTION_DDOT":0},{"OBJECT_NAME":"GPS BIIF-3  (PRN 24)","OBJECT_ID":"2012-053A","EPOCH":"2024-06-17T21:32:26.981664","MEAN_MOTION":2.00558738,"ECCENTRICITY":0.0151802,"INCLINATION":53.5176,"RA_OF_ASC_NODE":173.4399,"ARG_OF_PERICENTER":55.7756,"MEAN_ANOMALY":305.6883,"EPHEMERIS_TYPE":0,"CLASSIFICATION_TYPE":"U","NORAD_CAT_ID":38833,"ELEMENT_SET_NO":999,"REV_AT_EPOCH":8481,"BSTAR":0,"MEAN_MOTION_DOT":1.08e-6,"MEAN_MOTION_DDOT":0},{"OBJECT_NAME":"GSAT0103 (PRN E19)","OBJECT_ID":"2012-055A","EPOCH":"2024-06-16T14:08:31.448832","MEAN_MOTION":1.7047369,"ECCENTRICITY":0.0005339,"INCLINATION":55.4071,"RA_OF_ASC_NODE":121.6221,"ARG_OF_PERICENTER":281.6177,"MEAN_ANOMALY":78.2834,"EPHEMERIS_TYPE":0,"CLASSIFICATION_TYPE":"U","NORAD_CAT_ID":38857,"ELEMENT_SET_NO":999,"REV_AT_EPOCH":7255,"BSTAR":0,"MEAN_MOTION_DOT":3.4e-7,"MEAN_MOTION_DDOT":0},{"OBJECT_NAME":"BEIDOU-2 G6 (C02)","OBJECT_ID":"2012-059A","EPOCH":"2024-06-18T02:37:42.884832","MEAN_MOTION":1.00272741,"ECCENTRICITY":0.0009891,"INCLINATION":2.5619,"RA_OF_ASC_NODE":80.5049,"ARG_OF_PERICENTER":318.0074,"MEAN_ANOMALY":351.8277,"EPHEMERIS_TYPE":0,"CLASSIFICATION_TYPE":"U","NORAD_CAT_ID":38953,"ELEMENT_SET_NO":999,"REV_AT_EPOCH":4273,"BSTAR":0,"MEAN_MOTION_DOT":-1.55e-6,"MEAN_MOTION_DDOT":0},{"OBJECT_NAME":"LUCH 5B (SDCM\/PRN 125)","OBJECT_ID":"2012-061A","EPOCH":"2024-06-17T10:30:57.504384","MEAN_MOTION":1.00271791,"ECCENTRICITY":0.0003995,"INCLINATION":8.8888,"RA_OF_ASC_NODE":56.7071,"ARG_OF_PERICENTER":86.0428,"MEAN_ANOMALY":264.8607,"EPHEMERIS_TYPE":0,"CLASSIFICATION_TYPE":"U","NORAD_CAT_ID":38977,"ELEMENT_SET_NO":999,"REV_AT_EPOCH":4228,"BSTAR":0,"MEAN_MOTION_DOT":-1.22e-6,"MEAN_MOTION_DDOT":0},{"OBJECT_NAME":"COSMOS 2485 (747)","OBJECT_ID":"2013-019A","EPOCH":"2024-06-17T05:08:52.819008","MEAN_MOTION":2.1310192,"ECCENTRICITY":0.0023056,"INCLINATION":65.0439,"RA_OF_ASC_NODE":98.1754,"ARG_OF_PERICENTER":235.4931,"MEAN_ANOMALY":124.2812,"EPHEMERIS_TYPE":0,"CLASSIFICATION_TYPE":"U","NORAD_CAT_ID":39155,"ELEMENT_SET_NO":999,"REV_AT_EPOCH":8672,"BSTAR":0,"MEAN_MOTION_DOT":-1.7e-7,"MEAN_MOTION_DDOT":0},{"OBJECT_NAME":"GPS BIIF-4  (PRN 27)","OBJECT_ID":"2013-023A","EPOCH":"2024-06-17T18:15:04.944960","MEAN_MOTION":2.00562896,"ECCENTRICITY":0.0123883,"INCLINATION":55.1127,"RA_OF_ASC_NODE":298.5589,"ARG_OF_PERICENTER":44.8945,"MEAN_ANOMALY":316.094,"EPHEMERIS_TYPE":0,"CLASSIFICATION_TYPE":"U","NORAD_CAT_ID":39166,"ELEMENT_SET_NO":999,"REV_AT_EPOCH":8125,"BSTAR":0,"MEAN_MOTION_DOT":-6.7e-7,"MEAN_MOTION_DDOT":0},{"OBJECT_NAME":"IRNSS-1A","OBJECT_ID":"2013-034A","EPOCH":"2024-06-17T21:35:03.319008","MEAN_MOTION":1.00272577,"ECCENTRICITY":0.0017661,"INCLINATION":34.0793,"RA_OF_ASC_NODE":74.4417,"ARG_OF_PERICENTER":181.255,"MEAN_ANOMALY":29.6059,"EPHEMERIS_TYPE":0,"CLASSIFICATION_TYPE":"U","NORAD_CAT_ID":39199,"ELEMENT_SET_NO":999,"REV_AT_EPOCH":4033,"BSTAR":0,"MEAN_MOTION_DOT":7.1e-7,"MEAN_MOTION_DDOT":0},{"OBJECT_NAME":"GPS BIIF-5  (PRN 30)","OBJECT_ID":"2014-008A","EPOCH":"2024-06-17T06:18:24.074496","MEAN_MOTION":2.00568571,"ECCENTRICITY":0.0073208,"INCLINATION":53.6003,"RA_OF_ASC_NODE":179.0634,"ARG_OF_PERICENTER":220.6685,"MEAN_ANOMALY":138.8263,"EPHEMERIS_TYPE":0,"CLASSIFICATION_TYPE":"U","NORAD_CAT_ID":39533,"ELEMENT_SET_NO":999,"REV_AT_EPOCH":7504,"BSTAR":0,"MEAN_MOTION_DOT":1.1e-6,"MEAN_MOTION_DDOT":0}]
